NORAD_CAT_ID,OBJECT_NAME,OBJECT_TYPE,EPOCH,MEAN_MOTION,ECCENTRICITY,INCLINATION,RA_OF_ASC_NODE,ARG_OF_PERICENTER,MEAN_ANOMALY,BSTAR,MEAN_MOTION_DOT,MEAN_MOTION_DDOT,TLE_LINE0,TLE_LINE1,TLE_LINE2,SEMIMAJOR_AXIS,PERIOD,APOGEE,PERIGEE,DECAYED
51138.0,STARLINK-3177,PAYLOAD,2023-12-02 10:59:33,15.0882477,0.0001528,53.2178,57.1954,106.1954,253.9206,-0.0004575,-7.559e-05,0.0,0 STARLINK-3177,1 51138U 22005AL  23336.45802596 -.00007559  00000-0 -45750-3 0  9995,2 51138  53.2178  57.1954 0001528 106.1954 253.9206 15.08824770104812,6917.927,95.439,540.849,538.735,0.0
51138.0,STARLINK-3177,PAYLOAD,2023-12-02 12:34:56,15.08814261,0.000139,53.2176,56.8998,91.3022,268.813,-0.00065908,-0.00010754,0.0,0 STARLINK-3177,1 51138U 22005AL  23336.52427021 -.00010754  00000-0 -65908-3 0  9997,2 51138  53.2176  56.8998 0001390  91.3022 268.8130 15.08814261103704,6917.959,95.439,540.786,538.862,0.0
51138.0,STARLINK-3177,PAYLOAD,2023-12-03 10:50:22,15.08813688,0.0001387,53.2175,52.734,71.8393,288.275,-0.0002383,-4.076e-05,0.0,0 STARLINK-3177,1 51138U 22005AL  23337.45164959 -.00004076  00000-0 -23830-3 0  9996,2 51138  53.2175  52.7340 0001387  71.8393 288.2750 15.08813688104964,6917.961,95.439,540.785,538.866,0.0
51138.0,STARLINK-3177,PAYLOAD,2023-12-03 14:01:08,15.08819639,0.0001362,53.2172,52.1389,85.0607,275.0541,-4.1568e-05,-9.49e-06,0.0,0 STARLINK-3177,1 51138U 22005AL  23337.58412918 -.00000949  00000-0 -41568-4 0  9995,2 51138  53.2172  52.1389 0001362  85.0607 275.0541 15.08819639103868,6917.943,95.439,540.75,538.865,0.0
51138.0,STARLINK-3177,PAYLOAD,2023-12-04 10:41:09,15.08843667,0.0001843,53.2182,48.2819,69.9322,290.1869,0.00072326,0.00011243,0.0,0 STARLINK-3177,1 51138U 22005AL  23338.44525382  .00011243  00000-0  72326-3 0  9993,2 51138  53.2182  48.2819 0001843  69.9322 290.1869 15.08843667105111,6917.869,95.437,541.009,538.459,0.0
51138.0,STARLINK-3177,PAYLOAD,2023-12-04 13:51:55,15.08860695,0.0001458,53.217,47.6801,83.5023,276.6135,0.0010347,0.00016227,0.0,0 STARLINK-3177,1 51138U 22005AL  23338.57772744  .00016227  00000-0  10347-2 0  9994,2 51138  53.2170  47.6801 0001458  83.5023 276.6135 15.08860695104017,6917.817,95.436,540.691,538.674,0.0
51138.0,STARLINK-3177,PAYLOAD,2023-12-04 15:27:18,15.08870399,0.0001491,53.2168,47.3841,83.0192,277.097,0.0012413,0.00019539,0.0,0 STARLINK-3177,1 51138U 22005AL  23338.64396616  .00019539  00000-0  12413-2 0  9997,2 51138  53.2168  47.3841 0001491  83.0192 277.0970 15.08870399105143,6917.787,95.436,540.684,538.621,0.0
51138.0,STARLINK-3177,PAYLOAD,2023-12-05 04:10:23,15.08867835,0.0001632,53.2162,45.0016,86.8679,273.25,0.0006757,0.0001049,0.0,0 STARLINK-3177,1 51138U 22005AL  23339.17388166  .00010490  00000-0  67570-3 0  9999,2 51138  53.2162  45.0016 0001632  86.8679 273.2500 15.08867835105221,6917.795,95.436,540.789,538.531,0.0
51138.0,STARLINK-3177,PAYLOAD,2023-12-05 12:07:18,15.08875538,0.0001344,53.2167,43.519,90.0216,270.093,0.0013741,0.0002167,0.0,0 STARLINK-3177,1 51138U 22005AL  23339.50507469  .00021670  00000-0  13741-2 0  9997,2 51138  53.2167  43.5190 0001344  90.0216 270.0930 15.08875538104158,6917.772,95.435,540.567,538.707,0.0
51138.0,STARLINK-3177,PAYLOAD,2023-12-06 04:01:09,15.08858253,0.0001517,53.2172,40.5457,109.2593,250.8563,0.0010849,0.00017029,0.0,0 STARLINK-3177,1 51138U 22005AL  23340.16747359  .00017029  00000-0  10849-2 0  9994,2 51138  53.2172  40.5457 0001517 109.2593 250.8563 15.08858253105378,6917.825,95.436,540.739,538.64,0.0
51138.0,STARLINK-3177,PAYLOAD,2023-12-06 10:22:42,15.0885517,0.00015,53.2176,39.3552,101.8104,258.3057,0.00070025,0.00010879,0.0,0 STARLINK-3177,1 51138U 22005AL  23340.43243263  .00010879  00000-0  70025-3 0  9998,2 51138  53.2176  39.3552 0001500 101.8104 258.3057 15.08855170105413,6917.834,95.437,540.737,538.661,0.0
51138.0,STARLINK-3177,PAYLOAD,2023-12-07 03:51:57,15.08840869,0.0001751,53.2172,36.0871,76.9206,283.1982,0.00028212,4.205e-05,0.0,0 STARLINK-3177,1 51138U 22005AL  23341.16107712  .00004205  00000-0  28212-3 0  9994,2 51138  53.2172  36.0871 0001751  76.9206 283.1982 15.08840869105524,6917.878,95.437,540.954,538.531,0.0
51138.0,STARLINK-3177,PAYLOAD,2023-12-07 13:24:15,15.08849171,0.0001425,53.2166,34.3006,96.9344,263.181,5.3739e-05,5.68e-06,0.0,0 STARLINK-3177,1 51138U 22005AL  23341.55851173  .00000568  00000-0  53739-4 0  9995,2 51138  53.2166  34.3006 0001425  96.9344 263.1810 15.08849171104466,6917.852,95.437,540.703,538.732,0.0
51138.0,STARLINK-3177,PAYLOAD,2023-12-08 03:42:44,15.08834661,0.0001807,53.2175,31.6234,106.5421,253.577,0.00017673,2.525e-05,0.0,0 STARLINK-3177,1 51138U 22005AL  23342.15467951  .00002525  00000-0  17673-3 0  9990,2 51138  53.2175  31.6234 0001807 106.5421 253.5770 15.08834661105677,6917.897,95.438,541.012,538.512,0.0
51138.0,STARLINK-3177,PAYLOAD,2023-12-08 10:04:16,15.08840284,0.0001572,53.2179,30.4369,96.2775,263.8397,0.00010758,1.425e-05,0.0,0 STARLINK-3177,1 51138U 22005AL  23342.41963728  .00001425  00000-0  10758-3 0  9997,2 51138  53.2179  30.4369 0001572  96.2775 263.8397 15.08840284104590,6917.88,95.438,540.832,538.657,0.0
51138.0,STARLINK-3177,PAYLOAD,2023-12-09 09:55:03,15.08839946,0.0001528,53.218,25.9764,93.9976,266.1191,8.4782e-05,1.062e-05,0.0,0 STARLINK-3177,1 51138U 22005AL  23343.41323862  .00001062  00000-0  84782-4 0  9993,2 51138  53.2180  25.9764 0001528  93.9976 266.1191 15.08839946105860,6917.881,95.438,540.803,538.689,0.0
51138.0,STARLINK-3177,PAYLOAD,2023-12-11 08:01:15,15.08839092,0.0001506,53.2184,17.3519,98.0517,262.0646,8.3689e-05,1.044e-05,0.0,0 STARLINK-3177,1 51138U 22005AL  23345.33420283  .00001044  00000-0  83689-4 0  9996,2 51138  53.2184  17.3519 0001506  98.0517 262.0646 15.08839092106155,6917.883,95.438,540.79,538.706,0.0
51138.0,STARLINK-3177,PAYLOAD,2023-12-12 09:27:25,15.08839767,0.0001425,53.2181,12.5932,83.8358,276.2796,0.00010339,1.358e-05,0.0,0 STARLINK-3177,1 51138U 22005AL  23346.39404364  .00001358  00000-0  10339-3 0  9994,2 51138  53.2181  12.5932 0001425  83.8358 276.2796 15.08839767106313,6917.881,95.438,540.732,538.76,0.0
51138.0,STARLINK-3177,PAYLOAD,2023-12-13 09:18:12,15.08845038,0.0001508,53.2184,8.134,81.8137,278.3026,0.00011981,1.62e-05,0.0,0 STARLINK-3177,1 51138U 22005AL  23347.38764073  .00001620  00000-0  11981-3 0  9996,2 51138  53.2184   8.1340 0001508  81.8137 278.3026 15.08845038105344,6917.865,95.437,540.773,538.687,0.0
51138.0,STARLINK-3177,PAYLOAD,2023-12-14 07:33:36,15.0884201,0.0001842,53.2192,3.9709,68.9844,291.1345,8.867e-05,1.123e-05,0.0,0 STARLINK-3177,1 51138U 22005AL  23348.31500480  .00001123  00000-0  88670-4 0  9998,2 51138  53.2192   3.9709 0001842  68.9844 291.1345 15.08842010106601,6917.874,95.437,541.014,538.465,0.0
51138.0,STARLINK-3177,PAYLOAD,2023-12-15 04:13:37,15.08792392,0.0001876,53.2182,0.1091,85.3184,274.8023,0.00076526,0.00011896,0.0,0 STARLINK-3177,1 51138U 22005AL  23349.17613083  .00011896  00000-0  76526-3 0  9991,2 51138  53.2182   0.1091 0001876  85.3184 274.8023 15.08792392106732,6918.026,95.441,541.189,538.593,0.0
51138.0,STARLINK-3177,PAYLOAD,2023-12-15 07:24:23,15.08844026,0.0001658,53.2181,359.5135,79.8161,280.3018,6.0423e-05,6.74e-06,0.0,0 STARLINK-3177,1 51138U 22005AL  23349.30860244  .00000674  00000-0  60423-4 0  9991,2 51138  53.2181 359.5135 0001658  79.8161 280.3018 15.08844026106752,6917.868,95.437,540.88,538.586,0.0
51138.0,STARLINK-3177,PAYLOAD,2023-12-16 04:04:24,15.08834565,0.0001804,53.2193,355.6417,108.0725,252.0464,1.1646e-05,-1.03e-06,0.0,0 STARLINK-3177,1 51138U 22005AL  23350.16972894 -.00000103  00000-0  11646-4 0  9993,2 51138  53.2193 355.6417 0001804 108.0725 252.0464 15.08834565106881,6917.897,95.438,541.01,538.514,0.0
51138.0,STARLINK-3177,PAYLOAD,2023-12-16 07:15:10,15.08835384,0.0001735,53.2193,355.0475,104.1847,255.9338,9.2307e-06,-1.41e-06,0.0,0 STARLINK-3177,1 51138U 22005AL  23350.30220905 -.00000141  00000-0  92307-5 0  9994,2 51138  53.2193 355.0475 0001735 104.1847 255.9338 15.08835384105784,6917.894,95.438,540.96,538.559,0.0
51138.0,STARLINK-3177,PAYLOAD,2023-12-17 07:05:57,15.08841097,0.0001736,53.2193,350.5879,107.4158,252.7024,8.2949e-05,1.032e-05,0.0,0 STARLINK-3177,1 51138U 22005AL  23351.29580516  .00001032  00000-0  82949-4 0  9999,2 51138  53.2193 350.5879 0001736 107.4158 252.7024 15.08841097107051,6917.877,95.437,540.943,538.541,0.0
51138.0,STARLINK-3177,PAYLOAD,2023-12-18 06:56:44,15.08847391,0.0001628,53.2188,346.1285,103.9956,256.1218,0.00017442,2.49e-05,0.0,0 STARLINK-3177,1 51138U 22005AL  23352.28940040  .00002490  00000-0  17442-3 0  9995,2 51138  53.2188 346.1285 0001628 103.9956 256.1218 15.08847391106082,6917.858,95.437,540.849,538.597,0.0
51138.0,STARLINK-3177,PAYLOAD,2023-12-19 03:36:46,15.08832866,0.0001553,53.2185,342.2635,113.0041,247.1115,-1.2981e-05,-4.95e-06,0.0,0 STARLINK-3177,1 51138U 22005AL  23353.15053746 -.00000495  00000-0 -12981-4 0  9999,2 51138  53.2185 342.2635 0001553 113.0041 247.1115 15.08832866107335,6917.902,95.438,540.842,538.693,0.0
51138.0,STARLINK-3177,PAYLOAD,2023-12-19 06:47:32,15.08832896,0.000148,53.2178,341.6662,92.8021,267.3141,-7.5311e-05,-1.486e-05,0.0,0 STARLINK-3177,1 51138U 22005AL  23353.28301331 -.00001486  00000-0 -75311-4 0  9996,2 51138  53.2178 341.6662 0001480  92.8021 267.3141 15.08832896106235,6917.902,95.438,540.791,538.743,0.0
51138.0,STARLINK-3177,PAYLOAD,2023-12-20 03:27:33,15.08839041,0.0001288,53.2173,337.8,97.0265,263.0874,-1.7337e-05,-5.64e-06,0.0,0 STARLINK-3177,1 51138U 22005AL  23354.14413294 -.00000564  00000-0 -17337-4 0  9994,2 51138  53.2173 337.8000 0001288  97.0265 263.0874 15.08839041107489,6917.883,95.438,540.639,538.857,0.0
51138.0,STARLINK-3177,PAYLOAD,2023-12-20 06:38:19,15.08844559,0.0001452,53.2178,337.2054,84.8956,275.2202,0.00011801,1.591e-05,0.0,0 STARLINK-3177,1 51138U 22005AL  23354.27661208  .00001591  00000-0  11801-3 0  9996,2 51138  53.2178 337.2054 0001452  84.8956 275.2202 15.08844559106389,6917.866,95.437,540.736,538.727,0.0
